STARLINK-11578 [DTC]    
1 63014U 25032K   25212.95001072  .00238693  00000+0  18026-2 0  9991
2 63014  43.0011  86.2040 0003395 263.9281  96.1200 15.70945010 27443
STARLINK-11541 [DTC]    
1 63015U 25032L   25212.08095484  .00116786  00000+0  90121-3 0  9991
2 63015  43.0006  90.8417 0001662 271.2905  88.7772 15.70831642 27375
STARLINK-11545 [DTC]    
1 63016U 25032M   25212.02798390  .00218059  00000+0  16493-2 0  9997
2 63016  43.0031  91.3122 0004187 271.8263  88.2125 15.70969248 27361
STARLINK-11400 [DTC]    
1 63017U 25032N   25212.56320120  .00192340  00000+0  14684-2 0  9993
2 63017  43.0009  88.4586 0002380 260.9654  99.0944 15.70832786 27437
STARLINK-32870          
1 63018U 25032P   25212.51663397  .00028684  00000+0  10476-2 0  9999
2 63018  43.0023 145.1840 0000580 243.0005 117.0787 15.27587169 26798
STARLINK-32872          
1 63019U 25032Q   25212.53847770  .00018726  00000+0  68782-3 0  9991
2 63019  42.9984 145.3582 0002190 282.0286  78.0321 15.27600458 26798
STARLINK-32677          
1 63020U 25032R   25212.52048608  .00039785  00000+0  14465-2 0  9991
2 63020  43.0004 145.2201 0002294 270.3582  89.7007 15.27601192 26781
STARLINK-32929          
1 63021U 25032S   25212.19741108  .00028711  00000+0  10484-2 0  9994
2 63021  42.9996 147.0913 0001484 237.7775 122.2933 15.27592939 26746
STARLINK-32944          
1 63022U 25032T   25212.54233283  .00017966  00000+0  66046-3 0  9990
2 63022  43.0022 145.3852 0001641 265.5834  94.4830 15.27596132 26792
STARLINK-32943          
1 63023U 25032U   25212.91668981 -.00007187  00000+0 -25188-3 0  9997
2 63023  42.9994 142.6910 0001341 276.9988 224.6862 15.27580303 26859
STARLINK-32803          
1 63024U 25032V   25212.10246994  .00037820  00000+0  13755-2 0  9996
2 63024  42.9986 147.2327 0000507 169.3576 190.7286 15.27611843 26571
STARLINK-32926          
1 63025U 25032W   25212.22681294  .00038376  00000+0  13953-2 0  9993
2 63025  43.0012 146.4465 0002030 254.6315 105.4313 15.27615799 26758
STARLINK-32798          
1 63029U 25034A   25212.30265579  .00018062  00000+0  62034-3 0  9997
2 63029  53.1574 219.0786 0001215  80.1868 279.9270 15.30205903 26237
STARLINK-32779          
1 63030U 25034B   25212.42495732  .00029373  00000+0  99976-3 0  9990
2 63030  53.1587 219.1286 0001258  81.9092 278.2051 15.30205392 25021
STARLINK-32716          
1 63031U 25034C   25212.40083095  .00032093  00000+0  80887-3 0  9998
2 63031  53.1576 211.1645 0001355  94.0281 266.0879 15.39622210 25130
STARLINK-32776          
1 63032U 25034D   25212.39153938  .00024693  00000+0  62471-3 0  9997
2 63032  53.1574 211.1066 0001362  91.4867 268.6294 15.39649197 25137
