[{"OBJECT_NAME":"STARLINK-11578 [DTC]","OBJECT_ID":"2025-032K","EPOCH":"2025-07-31T22:48:00.926208","MEAN_MOTION":15.7094501,"ECCENTRICITY":0.0003395,"INCLINATION":43.0011,"RA_OF_ASC_NODE":86.204,"ARG_OF_PERICENTER":263.9281,"MEAN_ANOMALY":96.12,"EPHEMERIS_TYPE":0,"CLASSIFICATION_TYPE":"U","NORAD_CAT_ID":63014,"ELEMENT_SET_NO":999,"REV_AT_EPOCH":2744,"BSTAR":0.0018026,"MEAN_MOTION_DOT":0.00238693,"MEAN_MOTION_DDOT":0},{"OBJECT_NAME":"STARLINK-11541 [DTC]","OBJECT_ID":"2025-032L","EPOCH":"2025-07-31T01:56:34.498176","MEAN_MOTION":15.70831642,"ECCENTRICITY":0.0001662,"INCLINATION":43.0006,"RA_OF_ASC_NODE":90.8417,"ARG_OF_PERICENTER":271.2905,"MEAN_ANOMALY":88.7772,"EPHEMERIS_TYPE":0,"CLASSIFICATION_TYPE":"U","NORAD_CAT_ID":63015,"ELEMENT_SET_NO":999,"REV_AT_EPOCH":2737,"BSTAR":0.00090121,"MEAN_MOTION_DOT":0.00116786,"MEAN_MOTION_DDOT":0},{"OBJECT_NAME":"STARLINK-11545 [DTC]","OBJECT_ID":"2025-032M","EPOCH":"2025-07-31T00:40:17.808960","MEAN_MOTION":15.70969248,"ECCENTRICITY":0.0004187,"INCLINATION":43.0031,"RA_OF_ASC_NODE":91.3122,"ARG_OF_PERICENTER":271.8263,"MEAN_ANOMALY":88.2125,"EPHEMERIS_TYPE":0,"CLASSIFICATION_TYPE":"U","NORAD_CAT_ID":63016,"ELEMENT_SET_NO":999,"REV_AT_EPOCH":2736,"BSTAR":0.0016493,"MEAN_MOTION_DOT":0.00218059,"MEAN_MOTION_DDOT":0},{"OBJECT_NAME":"STARLINK-11400 [DTC]","OBJECT_ID":"2025-032N","EPOCH":"2025-07-31T13:31:00.583680","MEAN_MOTION":15.70832786,"ECCENTRICITY":0.000238,"INCLINATION":43.0009,"RA_OF_ASC_NODE":88.4586,"ARG_OF_PERICENTER":260.9654,"MEAN_ANOMALY":99.0944,"EPHEMERIS_TYPE":0,"CLASSIFICATION_TYPE":"U","NORAD_CAT_ID":63017,"ELEMENT_SET_NO":999,"REV_AT_EPOCH":2743,"BSTAR":0.0014684,"MEAN_MOTION_DOT":0.0019234,"MEAN_MOTION_DDOT":0},{"OBJECT_NAME":"STARLINK-32870","OBJECT_ID":"2025-032P","EPOCH":"2025-07-31T12:23:57.175008","MEAN_MOTION":15.27587169,"ECCENTRICITY":5.8e-5,"INCLINATION":43.0023,"RA_OF_ASC_NODE":145.184,"ARG_OF_PERICENTER":243.0005,"MEAN_ANOMALY":117.0787,"EPHEMERIS_TYPE":0,"CLASSIFICATION_TYPE":"U","NORAD_CAT_ID":63018,"ELEMENT_SET_NO":999,"REV_AT_EPOCH":2679,"BSTAR":0.0010476,"MEAN_MOTION_DOT":0.00028684,"MEAN_MOTION_DDOT":0},{"OBJECT_NAME":"STARLINK-32872","OBJECT_ID":"2025-032Q","EPOCH":"2025-07-31T12:55:24.473280","MEAN_MOTION":15.27600458,"ECCENTRICITY":0.000219,"INCLINATION":42.9984,"RA_OF_ASC_NODE":145.3582,"ARG_OF_PERICENTER":282.0286,"MEAN_ANOMALY":78.0321,"EPHEMERIS_TYPE":0,"CLASSIFICATION_TYPE":"U","NORAD_CAT_ID":63019,"ELEMENT_SET_NO":999,"REV_AT_EPOCH":2679,"BSTAR":0.00068782,"MEAN_MOTION_DOT":0.00018726,"MEAN_MOTION_DDOT":0},{"OBJECT_NAME":"STARLINK-32677","OBJECT_ID":"2025-032R","EPOCH":"2025-07-31T12:29:29.997312","MEAN_MOTION":15.27601192,"ECCENTRICITY":0.0002294,"INCLINATION":43.0004,"RA_OF_ASC_NODE":145.2201,"ARG_OF_PERICENTER":270.3582,"MEAN_ANOMALY":89.7007,"EPHEMERIS_TYPE":0,"CLASSIFICATION_TYPE":"U","NORAD_CAT_ID":63020,"ELEMENT_SET_NO":999,"REV_AT_EPOCH":2678,"BSTAR":0.0014465,"MEAN_MOTION_DOT":0.00039785,"MEAN_MOTION_DDOT":0},{"OBJECT_NAME":"STARLINK-32929","OBJECT_ID":"2025-032S","EPOCH":"2025-07-31T04:44:16.317312","MEAN_MOTION":15.27592939,"ECCENTRICITY":0.0001484,"INCLINATION":42.9996,"RA_OF_ASC_NODE":147.0913,"ARG_OF_PERICENTER":237.7775,"MEAN_ANOMALY":122.2933,"EPHEMERIS_TYPE":0,"CLASSIFICATION_TYPE":"U","NORAD_CAT_ID":63021,"ELEMENT_SET_NO":999,"REV_AT_EPOCH":2674,"BSTAR":0.0010484,"MEAN_MOTION_DOT":0.00028711,"MEAN_MOTION_DDOT":0},{"OBJECT_NAME":"STARLINK-32944","OBJECT_ID":"2025-032T","EPOCH":"2025-07-31T13:00:57.556512","MEAN_MOTION":15.27596132,"ECCENTRICITY":0.0001641,"INCLINATION":43.0022,"RA_OF_ASC_NODE":145.3852,"ARG_OF_PERICENTER":265.5834,"MEAN_ANOMALY":94.483,"EPHEMERIS_TYPE":0,"CLASSIFICATION_TYPE":"U","NORAD_CAT_ID":63022,"ELEMENT_SET_NO":999,"REV_AT_EPOCH":2679,"BSTAR":0.00066046,"MEAN_MOTION_DOT":0.00017966,"MEAN_MOTION_DDOT":0},{"OBJECT_NAME":"STARLINK-32943","OBJECT_ID":"2025-032U","EPOCH":"2025-07-31T22:00:01.999584","MEAN_MOTION":15.27580303,"ECCENTRICITY":0.0001341,"INCLINATION":42.9994,"RA_OF_ASC_NODE":142.691,"ARG_OF_PERICENTER":276.9988,"MEAN_ANOMALY":224.6862,"EPHEMERIS_TYPE":0,"CLASSIFICATION_TYPE":"U","NORAD_CAT_ID":63023,"ELEMENT_SET_NO":999,"REV_AT_EPOCH":2685,"BSTAR":-0.00025188,"MEAN_MOTION_DOT":-7.187e-5,"MEAN_MOTION_DDOT":0},{"OBJECT_NAME":"STARLINK-32803","OBJECT_ID":"2025-032V","EPOCH":"2025-07-31T02:27:33.402816","MEAN_MOTION":15.27611843,"ECCENTRICITY":5.07e-5,"INCLINATION":42.9986,"RA_OF_ASC_NODE":147.2327,"ARG_OF_PERICENTER":169.3576,"MEAN_ANOMALY":190.7286,"EPHEMERIS_TYPE":0,"CLASSIFICATION_TYPE":"U","NORAD_CAT_ID":63024,"ELEMENT_SET_NO":999,"REV_AT_EPOCH":2657,"BSTAR":0.0013755,"MEAN_MOTION_DOT":0.0003782,"MEAN_MOTION_DDOT":0},{"OBJECT_NAME":"STARLINK-32926","OBJECT_ID":"2025-032W","EPOCH":"2025-07-31T05:26:36.638016","MEAN_MOTION":15.27615799,"ECCENTRICITY":0.000203,"INCLINATION":43.0012,"RA_OF_ASC_NODE":146.4465,"ARG_OF_PERICENTER":254.6315,"MEAN_ANOMALY":105.4313,"EPHEMERIS_TYPE":0,"CLASSIFICATION_TYPE":"U","NORAD_CAT_ID":63025,"ELEMENT_SET_NO":999,"REV_AT_EPOCH":2675,"BSTAR":0.0013953,"MEAN_MOTION_DOT":0.00038376,"MEAN_MOTION_DDOT":0},{"OBJECT_NAME":"STARLINK-32798","OBJECT_ID":"2025-034A","EPOCH":"2025-07-31T07:15:49.460256","MEAN_MOTION":15.30205903,"ECCENTRICITY":0.0001215,"INCLINATION":53.1574,"RA_OF_ASC_NODE":219.0786,"ARG_OF_PERICENTER":80.1868,"MEAN_ANOMALY":279.927,"EPHEMERIS_TYPE":0,"CLASSIFICATION_TYPE":"U","NORAD_CAT_ID":63029,"ELEMENT_SET_NO":999,"REV_AT_EPOCH":2623,"BSTAR":0.00062034,"MEAN_MOTION_DOT":0.00018062,"MEAN_MOTION_DDOT":0},{"OBJECT_NAME":"STARLINK-32779","OBJECT_ID":"2025-034B","EPOCH":"2025-07-31T10:11:56.312448","MEAN_MOTION":15.30205392,"ECCENTRICITY":0.0001258,"INCLINATION":53.1587,"RA_OF_ASC_NODE":219.1286,"ARG_OF_PERICENTER":81.9092,"MEAN_ANOMALY":278.2051,"EPHEMERIS_TYPE":0,"CLASSIFICATION_TYPE":"U","NORAD_CAT_ID":63030,"ELEMENT_SET_NO":999,"REV_AT_EPOCH":2502,"BSTAR":0.00099976,"MEAN_MOTION_DOT":0.00029373,"MEAN_MOTION_DDOT":0},{"OBJECT_NAME":"STARLINK-32716","OBJECT_ID":"2025-034C","EPOCH":"2025-07-31T09:37:11.794080","MEAN_MOTION":15.3962221,"ECCENTRICITY":0.0001355,"INCLINATION":53.1576,"RA_OF_ASC_NODE":211.1645,"ARG_OF_PERICENTER":94.0281,"MEAN_ANOMALY":266.0879,"EPHEMERIS_TYPE":0,"CLASSIFICATION_TYPE":"U","NORAD_CAT_ID":63031,"ELEMENT_SET_NO":999,"REV_AT_EPOCH":2513,"BSTAR":0.00080887,"MEAN_MOTION_DOT":0.00032093,"MEAN_MOTION_DDOT":0},{"OBJECT_NAME":"STARLINK-32776","OBJECT_ID":"2025-034D","EPOCH":"2025-07-31T09:23:49.002432","MEAN_MOTION":15.39649197,"ECCENTRICITY":0.0001362,"INCLINATION":53.1574,"RA_OF_ASC_NODE":211.1066,"ARG_OF_PERICENTER":91.4867,"MEAN_ANOMALY":268.6294,"EPHEMERIS_TYPE":0,"CLASSIFICATION_TYPE":"U","NORAD_CAT_ID":63032,"ELEMENT_SET_NO":999,"REV_AT_EPOCH":2513,"BSTAR":0.00062471,"MEAN_MOTION_DOT":0.00024693,"MEAN_MOTION_DDOT":0}]
